ONEWEB-0363             
1 49289U 21090L   25137.10812296  .00000057  00000+0  10943-3 0  9992
2 49289  87.9276 353.3141 0002027  74.5778 285.5579 13.20773638178852
ONEWEB-0364             
1 49290U 21090M   25136.61570826  .00000065  00000+0  12899-3 0  9990
2 49290  87.9279 353.4423 0001804  79.5901 280.5436 13.20769834179093
ONEWEB-0365             
1 49291U 21090N   25136.66487047  .00000015  00000+0  62657-5 0  9992
2 49291  87.9242  23.7730 0001726  82.5891 277.5438 13.19726888174124
ONEWEB-0366             
1 49292U 21090P   25137.16670921  .00000338  00000+0  87623-3 0  9990
2 49292  87.9061   8.4996 0001848  82.0151 278.1189 13.14502817176836
ONEWEB-0367             
1 49293U 21090Q   25137.10654318  .00000058  00000+0  11089-3 0  9999
2 49293  87.9278 353.3094 0001716  92.2115 267.9215 13.20773570178847
ONEWEB-0368             
1 49294U 21090R   25136.62516897  .00000042  00000+0  70992-4 0  9997
2 49294  87.9278 353.4386 0001404  57.8241 302.3029 13.20769404178639
ONEWEB-0369             
1 49295U 21090S   25136.66013323 -.00000046  00000+0 -14635-3 0  9995
2 49295  87.9247  23.7996 0001777  79.8956 280.2377 13.19723815174113
ONEWEB-0370             
1 49296U 21090T   25136.66147253 -.00000061  00000+0 -18270-3 0  9992
2 49296  87.9278 353.4037 0001970  93.9961 266.1398 13.20773104177527
